{
  "type": "FeatureCollection",
  "features": [
    {
      "type": "Feature",
      "properties": {
        "norad_id": 37846,
        "name": "GSAT0101 (GALILEO-PFM)",
        "group": "gnss",
        "lat": 15.090875545501106,
        "lon": -2.936277575960681,
        "alt_km": 23217.14039922317,
        "timestamp": "2025-12-06T11:28:11.305492+00:00",
        "meta_object_name": "GSAT0101 (GALILEO-PFM)",
        "meta_object_id": "2011-060A",
        "meta_epoch": "2025-12-04T02:27:04.519296",
        "meta_mean_motion": 1.70475494,
        "meta_eccentricity": 0.00028233,
        "meta_inclination": 57.0547,
        "meta_ra_of_asc_node": 347.0545,
        "meta_arg_of_pericenter": 310.6019,
        "meta_mean_anomaly": 49.4066,
        "meta_ephemeris_type": 0,
        "meta_classification_type": "U",
        "meta_norad_cat_id": 37846,
        "meta_element_set_no": 999,
        "meta_rev_at_epoch": 8779,
        "meta_bstar": 0,
        "meta_mean_motion_dot": -7e-07,
        "meta_mean_motion_ddot": 0,
        "tle_line1": "1 37846U 11060A   25338.10213564 -.00000070  00000+0  00000+0 0  9995",
        "tle_line2": "2 37846  57.0547 347.0545 0002823 310.6019  49.4066  1.70475494 87792"
      },
      "geometry": {
        "type": "Point",
        "coordinates": [
          -2.936277575960681,
          15.090875545501106
        ]
      }
    },
    {
      "type": "Feature",
      "properties": {
        "norad_id": 37847,
        "name": "GSAT0102 (GALILEO-FM2)",
        "group": "gnss",
        "lat": 48.70405081596203,
        "lon": 34.58597057718716,
        "alt_km": 23222.651557215057,
        "timestamp": "2025-12-06T11:28:11.305503+00:00",
        "meta_object_name": "GSAT0102 (GALILEO-FM2)",
        "meta_object_id": "2011-060B",
        "meta_epoch": "2025-12-05T18:47:51.674208",
        "meta_mean_motion": 1.70475731,
        "meta_eccentricity": 0.00048401,
        "meta_inclination": 57.055,
        "meta_ra_of_asc_node": 347.0092,
        "meta_arg_of_pericenter": 307.2019,
        "meta_mean_anomaly": 49.9959,
        "meta_ephemeris_type": 0,
        "meta_classification_type": "U",
        "meta_norad_cat_id": 37847,
        "meta_element_set_no": 999,
        "meta_rev_at_epoch": 8782,
        "meta_bstar": 0,
        "meta_mean_motion_dot": -7.8e-07,
        "meta_mean_motion_ddot": 0,
        "tle_line1": "1 37847U 11060B   25339.78323697 -.00000078  00000+0  00000+0 0  9998",
        "tle_line2": "2 37847  57.0550 347.0092 0004840 307.2019  49.9959  1.70475731 87821"
      },
      "geometry": {
        "type": "Point",
        "coordinates": [
          34.58597057718716,
          48.70405081596203
        ]
      }
    },
    {
      "type": "Feature",
      "properties": {
        "norad_id": 37867,
        "name": "COSMOS 2476 (744)",
        "group": "gnss",
        "lat": -61.660295715709765,
        "lon": 20.360409140810006,
        "alt_km": 19097.665395079173,
        "timestamp": "2025-12-06T11:28:11.305516+00:00",
        "meta_object_name": "COSMOS 2476 (744)",
        "meta_object_id": "2011-064A",
        "meta_epoch": "2025-12-02T19:57:36.313920",
        "meta_mean_motion": 2.13101261,
        "meta_eccentricity": 0.00239603,
        "meta_inclination": 65.1573,
        "meta_ra_of_asc_node": 79.5068,
        "meta_arg_of_pericenter": 233.4935,
        "meta_mean_anomaly": 133.1658,
        "meta_ephemeris_type": 0,
        "meta_classification_type": "U",
        "meta_norad_cat_id": 37867,
        "meta_element_set_no": 999,
        "meta_rev_at_epoch": 10958,
        "meta_bstar": 0,
        "meta_mean_motion_dot": -2.2e-07,
        "meta_mean_motion_ddot": 0,
        "tle_line1": "1 37867U 11064A   25336.83167030 -.00000022  00000+0  00000+0 0  9993",
        "tle_line2": "2 37867  65.1573  79.5068 0023960 233.4935 133.1658  2.13101261109581"
      },
      "geometry": {
        "type": "Point",
        "coordinates": [
          20.360409140810006,
          -61.660295715709765
        ]
      }
    },
    {
      "type": "Feature",
      "properties": {
        "norad_id": 37868,
        "name": "COSMOS 2477 (745)",
        "group": "gnss",
        "lat": 61.420440718721565,
        "lon": -158.60012639084547,
        "alt_km": 19156.85217235743,
        "timestamp": "2025-12-06T11:28:11.305534+00:00",
        "meta_object_name": "COSMOS 2477 (745)",
        "meta_object_id": "2011-064B",
        "meta_epoch": "2025-12-01T05:34:43.743072",
        "meta_mean_motion": 2.1310269,
        "meta_eccentricity": 0.00209845,
        "meta_inclination": 65.1625,
        "meta_ra_of_asc_node": 79.6383,
        "meta_arg_of_pericenter": 233.8301,
        "meta_mean_anomaly": 166.8442,
        "meta_ephemeris_type": 0,
        "meta_classification_type": "U",
        "meta_norad_cat_id": 37868,
        "meta_element_set_no": 999,
        "meta_rev_at_epoch": 10954,
        "meta_bstar": 0,
        "meta_mean_motion_dot": -1.2e-07,
        "meta_mean_motion_ddot": 0,
        "tle_line1": "1 37868U 11064B   25335.23245073 -.00000012  00000+0  00000+0 0  9990",
        "tle_line2": "2 37868  65.1625  79.6383 0020984 233.8301 166.8442  2.13102690109542"
      },
      "geometry": {
        "type": "Point",
        "coordinates": [
          -158.60012639084547,
          61.420440718721565
        ]
      }
    },
    {
      "type": "Feature",
      "properties": {
        "norad_id": 37869,
        "name": "COSMOS 2475 (743)",
        "group": "gnss",
        "lat": 52.43624097865384,
        "lon": 116.42136602500956,
        "alt_km": 19189.92017583926,
        "timestamp": "2025-12-06T11:28:11.305546+00:00",
        "meta_object_name": "COSMOS 2475 (743)",
        "meta_object_id": "2011-064C",
        "meta_epoch": "2025-12-02T03:10:18.719904",
        "meta_mean_motion": 2.13101359,
        "meta_eccentricity": 0.0026048,
        "meta_inclination": 65.1701,
        "meta_ra_of_asc_node": 79.6277,
        "meta_arg_of_pericenter": 248.2415,
        "meta_mean_anomaly": 78.6584,
        "meta_ephemeris_type": 0,
        "meta_classification_type": "U",
        "meta_norad_cat_id": 37869,
        "meta_element_set_no": 999,
        "meta_rev_at_epoch": 10956,
        "meta_bstar": 0,
        "meta_mean_motion_dot": -1.8e-07,
        "meta_mean_motion_ddot": 0,
        "tle_line1": "1 37869U 11064C   25336.13216111 -.00000018  00000+0  00000+0 0  9998",
        "tle_line2": "2 37869  65.1701  79.6277 0026048 248.2415  78.6584  2.13101359109563"
      },
      "geometry": {
        "type": "Point",
        "coordinates": [
          116.42136602500956,
          52.43624097865384
        ]
      }
    },
    {
      "type": "Feature",
      "properties": {
        "norad_id": 37948,
        "name": "BEIDOU-2 IGSO-5 (C10)",
        "group": "gnss",
        "lat": 42.70362594061068,
        "lon": -30.126814649340382,
        "alt_km": 36200.739703055966,
        "timestamp": "2025-12-06T11:28:11.305559+00:00",
        "meta_object_name": "BEIDOU-2 IGSO-5 (C10)",
        "meta_object_id": "2011-073A",
        "meta_epoch": "2025-12-05T19:16:03.972000",
        "meta_mean_motion": 1.00291877,
        "meta_eccentricity": 0.01105894,
        "meta_inclination": 48.0339,
        "meta_ra_of_asc_node": 273.9433,
        "meta_arg_of_pericenter": 222.1593,
        "meta_mean_anomaly": 320.3155,
        "meta_ephemeris_type": 0,
        "meta_classification_type": "U",
        "meta_norad_cat_id": 37948,
        "meta_element_set_no": 999,
        "meta_rev_at_epoch": 5119,
        "meta_bstar": 0,
        "meta_mean_motion_dot": -1.79e-06,
        "meta_mean_motion_ddot": 0,
        "tle_line1": "1 37948U 11073A   25339.80282375 -.00000179  00000+0  00000+0 0  9996",
        "tle_line2": "2 37948  48.0339 273.9433 0110589 222.1593 320.3155  1.00291877 51199"
      },
      "geometry": {
        "type": "Point",
        "coordinates": [
          -30.126814649340382,
          42.70362594061068
        ]
      }
    },
    {
      "type": "Feature",
      "properties": {
        "norad_id": 37951,
        "name": "LUCH 5A (SDCM/PRN 140)",
        "group": "gnss",
        "lat": -3.0751403763062055,
        "lon": 54.793221568220446,
        "alt_km": 35809.80390802063,
        "timestamp": "2025-12-06T11:28:11.305573+00:00",
        "meta_object_name": "LUCH 5A (SDCM/PRN 140)",
        "meta_object_id": "2011-074B",
        "meta_epoch": "2025-12-05T14:29:23.935200",
        "meta_mean_motion": 1.00273578,
        "meta_eccentricity": 0.00059107,
        "meta_inclination": 8.2608,
        "meta_ra_of_asc_node": 76.6899,
        "meta_arg_of_pericenter": 175.8473,
        "meta_mean_anomaly": 206.4665,
        "meta_ephemeris_type": 0,
        "meta_classification_type": "U",
        "meta_norad_cat_id": 37951,
        "meta_element_set_no": 999,
        "meta_rev_at_epoch": 5111,
        "meta_bstar": 0,
        "meta_mean_motion_dot": -4.3e-07,
        "meta_mean_motion_ddot": 0,
        "tle_line1": "1 37951U 11074B   25339.60374925 -.00000043  00000+0  00000+0 0  9992",
        "tle_line2": "2 37951   8.2608  76.6899 0005910 175.8473 206.4665  1.00273578 51116"
      },
      "geometry": {
        "type": "Point",
        "coordinates": [
          54.793221568220446,
          -3.0751403763062055
        ]
      }
    }
  ]
}